NORAD_CAT_ID,OBJECT_NAME,OBJECT_TYPE,EPOCH,MEAN_MOTION,ECCENTRICITY,INCLINATION,RA_OF_ASC_NODE,ARG_OF_PERICENTER,MEAN_ANOMALY,BSTAR,MEAN_MOTION_DOT,MEAN_MOTION_DDOT,TLE_LINE0,TLE_LINE1,TLE_LINE2,SEMIMAJOR_AXIS,PERIOD,APOGEE,PERIGEE,DECAYED
53401.0,STARLINK-4525,PAYLOAD,2024-04-01 04:08:44,15.08853217,0.0001607,53.2174,60.2878,88.2995,271.8182,0.00023647,3.479e-05,0.0,0 STARLINK-4525,1 53401U 22097P   24092.17273818  .00003479  00000-0  23647-3 0  9995,2 53401  53.2174  60.2878 0001607  88.2995 271.8182 15.08853217 91215,6917.84,95.437,540.817,538.593,0.0
53401.0,STARLINK-4525,PAYLOAD,2024-04-01 15:16:26,15.08844009,0.000139,53.2162,58.2048,91.4101,268.7051,7.7076e-05,9.39e-06,0.0,0 STARLINK-4525,1 53401U 22097P   24092.63641958  .00000939  00000-0  77076-4 0  9994,2 53401  53.2162  58.2048 0001390  91.4101 268.7051 15.08844009 91288,6917.868,95.437,540.695,538.772,0.0
53401.0,STARLINK-4525,PAYLOAD,2024-04-02 03:59:32,15.08834837,0.000173,53.2185,55.8242,94.3762,265.7428,-1.6046e-05,-5.43e-06,0.0,0 STARLINK-4525,1 53401U 22097P   24093.16634668 -.00000543  00000-0 -16046-4 0  9996,2 53401  53.2185  55.8242 0001730  94.3762 265.7428 15.08834837 91367,6917.896,95.438,540.958,538.564,0.0
53401.0,STARLINK-4525,PAYLOAD,2024-04-02 07:10:18,15.08836694,0.0001697,53.2186,55.2285,92.6308,267.4878,-6.337e-05,-1.296e-05,0.0,0 STARLINK-4525,1 53401U 22097P   24093.29882525 -.00001296  00000-0 -63370-4 0  9995,2 53401  53.2186  55.2285 0001697  92.6308 267.4878 15.08836694 91875,6917.89,95.438,540.929,538.582,0.0
53401.0,STARLINK-4525,PAYLOAD,2024-04-02 21:28:46,15.08839684,0.0001573,53.2182,52.5534,96.2554,263.8617,4.7355e-05,4.66e-06,0.0,0 STARLINK-4525,1 53401U 22097P   24093.89498533  .00000466  00000-0  47355-4 0  9994,2 53401  53.2182  52.5534 0001573  96.2554 263.8617 15.08839684 91967,6917.881,95.438,540.835,538.658,0.0
53401.0,STARLINK-4525,PAYLOAD,2024-04-03 07:01:05,15.08841603,0.000174,53.2179,50.7693,116.5817,243.5353,0.00025955,3.845e-05,0.0,0 STARLINK-4525,1 53401U 22097P   24094.29242485  .00003845  00000-0  25955-3 0  9997,2 53401  53.2179  50.7693 0001740 116.5817 243.5353 15.08841603 91532,6917.875,95.437,540.944,538.537,0.0
53401.0,STARLINK-4525,PAYLOAD,2024-04-03 21:19:34,15.08836464,0.000158,53.2175,48.0928,94.1884,265.9289,0.00020268,2.939e-05,0.0,0 STARLINK-4525,1 53401U 22097P   24094.88858971  .00002939  00000-0  20268-3 0  9990,2 53401  53.2175  48.0928 0001580  94.1884 265.9289 15.08836464 91621,6917.891,95.438,540.849,538.663,0.0
53401.0,STARLINK-4525,PAYLOAD,2024-04-04 13:13:25,15.08842013,0.0001366,53.2165,45.1202,90.1856,269.9293,0.00014146,1.964e-05,0.0,0 STARLINK-4525,1 53401U 22097P   24095.55098634  .00001964  00000-0  14146-3 0  9992,2 53401  53.2165  45.1202 0001366  90.1856 269.9293 15.08842013 92212,6917.874,95.437,540.684,538.794,0.0
53401.0,STARLINK-4525,PAYLOAD,2024-04-05 05:07:16,15.08841433,0.0001497,53.2176,42.149,97.0104,263.1058,6.1634e-05,6.93e-06,0.0,0 STARLINK-4525,1 53401U 22097P   24096.21338707  .00000693  00000-0  61634-4 0  9997,2 53401  53.2176  42.1490 0001497  97.0104 263.1058 15.08841433 91823,6917.876,95.437,540.777,538.705,0.0
53401.0,STARLINK-4525,PAYLOAD,2024-04-05 13:04:12,15.08842263,0.0001467,53.2177,40.6623,95.9749,264.141,1.0222e-05,-1.25e-06,0.0,0 STARLINK-4525,1 53401U 22097P   24096.54458632 -.00000125  00000-0  10222-4 0  9991,2 53401  53.2177  40.6623 0001467  95.9749 264.1410 15.08842263 92369,6917.873,95.437,540.753,538.724,0.0
53401.0,STARLINK-4525,PAYLOAD,2024-04-06 12:54:59,15.08842174,0.0001558,53.2189,36.201,87.2231,272.894,3.1994e-05,2.21e-06,0.0,0 STARLINK-4525,1 53401U 22097P   24097.53818749  .00000221  00000-0  31994-4 0  9995,2 53401  53.2189  36.2010 0001558  87.2231 272.8940 15.08842174 92022,6917.874,95.437,540.817,538.661,0.0
53401.0,STARLINK-4525,PAYLOAD,2024-04-07 12:45:46,15.08840728,0.0001594,53.2197,31.7426,89.1019,271.0156,5.2483e-05,5.47e-06,0.0,0 STARLINK-4525,1 53401U 22097P   24098.53179306  .00000547  00000-0  52483-4 0  9992,2 53401  53.2197  31.7426 0001594  89.1019 271.0156 15.08840728 92660,6917.878,95.438,540.846,538.64,0.0
53401.0,STARLINK-4525,PAYLOAD,2024-04-08 04:39:37,15.08850885,0.0001275,53.2172,28.7681,93.3336,266.7802,9.905e-05,1.289e-05,0.0,0 STARLINK-4525,1 53401U 22097P   24099.19418485  .00001289  00000-0  99050-4 0  9994,2 53401  53.2172  28.7681 0001275  93.3336 266.7802 15.08850885 92278,6917.847,95.437,540.594,538.83,0.0
53401.0,STARLINK-4525,PAYLOAD,2024-04-08 12:36:33,15.08848539,0.0001231,53.2179,27.2789,93.2855,266.8278,7.8569e-05,9.63e-06,0.0,0 STARLINK-4525,1 53401U 22097P   24099.52538574  .00000963  00000-0  78569-4 0  9993,2 53401  53.2179  27.2789 0001231  93.2855 266.8278 15.08848539 92816,6917.854,95.437,540.571,538.868,0.0
53401.0,STARLINK-4525,PAYLOAD,2024-04-08 23:44:15,15.08834839,0.0001274,53.2176,25.1966,88.7849,271.3289,0.00027777,4.135e-05,0.0,0 STARLINK-4525,1 53401U 22097P   24099.98907110  .00004135  00000-0  27777-3 0  9998,2 53401  53.2176  25.1966 0001274  88.7849 271.3289 15.08834839 92884,6917.896,95.438,540.643,538.88,0.0
53401.0,STARLINK-4525,PAYLOAD,2024-04-09 04:30:24,15.08849439,0.0001301,53.2176,24.3037,95.1281,264.9859,0.00011412,1.529e-05,0.0,0 STARLINK-4525,1 53401U 22097P   24100.18778323  .00001529  00000-0  11412-3 0  9998,2 53401  53.2176  24.3037 0001301  95.1281 264.9859 15.08849439 92420,6917.852,95.437,540.617,538.817,0.0
53401.0,STARLINK-4525,PAYLOAD,2024-04-09 12:27:20,15.0884695,0.0001264,53.2175,22.8183,93.6217,266.4919,8.3738e-05,1.045e-05,0.0,0 STARLINK-4525,1 53401U 22097P   24100.51898479  .00001045  00000-0  83738-4 0  9994,2 53401  53.2175  22.8183 0001264  93.6217 266.4919 15.08846950 92962,6917.859,95.437,540.599,538.85,0.0
53401.0,STARLINK-4525,PAYLOAD,2024-04-09 18:48:53,15.08839893,0.0001691,53.2219,21.6284,95.2813,264.8372,3.7496e-05,3.09e-06,0.0,0 STARLINK-4525,1 53401U 22097P   24100.78395189  .00000309  00000-0  37496-4 0  9995,2 53401  53.2219  21.6284 0001691  95.2813 264.8372 15.08839893 92518,6917.881,95.438,540.916,538.576,0.0
53401.0,STARLINK-4525,PAYLOAD,2024-04-10 04:21:12,15.08843079,0.0001443,53.2193,19.8448,98.6551,261.4604,2.0849e-05,4.4e-07,0.0,0 STARLINK-4525,1 53401U 22097P   24101.18138945  .00000044  00000-0  20849-4 0  9995,2 53401  53.2193  19.8448 0001443  98.6551 261.4604 15.08843079 93064,6917.871,95.437,540.734,538.738,0.0
53401.0,STARLINK-4525,PAYLOAD,2024-04-10 21:50:27,15.08835488,0.0001519,53.2189,16.5734,99.6675,260.4489,-1.0256e-05,-4.51e-06,0.0,0 STARLINK-4525,1 53401U 22097P   24101.91003603 -.00000451  00000-0 -10256-4 0  9993,2 53401  53.2189  16.5734 0001519  99.6675 260.4489 15.08835488 93170,6917.894,95.438,540.81,538.708,0.0
53401.0,STARLINK-4525,PAYLOAD,2024-04-11 04:11:59,15.08849108,0.000156,53.2198,15.3835,98.5457,261.5712,-0.00014906,-2.66e-05,0.0,0 STARLINK-4525,1 53401U 22097P   24102.17499165 -.00002660  00000-0 -14906-3 0  9993,2 53401  53.2198  15.3835 0001560  98.5457 261.5712 15.08849108 92726,6917.853,95.437,540.797,538.638,0.0
53401.0,STARLINK-4525,PAYLOAD,2024-04-11 21:41:13,15.08837565,0.0001567,53.2192,12.1125,105.2347,254.8818,0.00010392,1.366e-05,0.0,0 STARLINK-4525,1 53401U 22097P   24102.90363328  .00001366  00000-0  10392-3 0  9990,2 53401  53.2192  12.1125 0001567 105.2347 254.8818 15.08837565 92836,6917.888,95.438,540.837,538.669,0.0
53401.0,STARLINK-4525,PAYLOAD,2024-04-12 04:02:46,15.08844985,0.0001304,53.2188,10.9247,93.9089,266.2052,0.0001435,1.997e-05,0.0,0 STARLINK-4525,1 53401U 22097P   24103.16858843  .00001997  00000-0  14350-3 0  9998,2 53401  53.2188  10.9247 0001304  93.9089 266.2052 15.08844985 92872,6917.865,95.437,540.632,538.828,0.0
53401.0,STARLINK-4525,PAYLOAD,2024-04-13 02:18:10,15.08836632,0.0001238,53.2194,6.7595,88.405,271.7084,4.5412e-05,4.35e-06,0.0,0 STARLINK-4525,1 53401U 22097P   24104.09595979  .00000435  00000-0  45412-4 0  9999,2 53401  53.2194   6.7595 0001238  88.4050 271.7084 15.08836632 93014,6917.891,95.438,540.612,538.899,0.0
53401.0,STARLINK-4525,PAYLOAD,2024-04-13 21:22:48,15.08847687,0.0001124,53.219,3.19,80.6482,279.4637,5.1875e-06,-2.05e-06,0.0,0 STARLINK-4525,1 53401U 22097P   24104.89083556 -.00000205  00000-0  51875-5 0  9997,2 53401  53.2190   3.1900 0001124  80.6482 279.4637 15.08847687 93626,6917.857,95.437,540.499,538.944,0.0
53401.0,STARLINK-4525,PAYLOAD,2024-04-14 02:08:57,15.08854854,0.0001366,53.2199,2.3015,76.8404,283.2741,9.1638e-05,1.171e-05,0.0,0 STARLINK-4525,1 53401U 22097P   24105.08954965  .00001171  00000-0  91638-4 0  9992,2 53401  53.2199   2.3015 0001366  76.8404 283.2741 15.08854854 93164,6917.835,95.437,540.645,538.755,0.0
53401.0,STARLINK-4525,PAYLOAD,2024-04-14 21:13:35,15.08842967,0.0001543,53.2201,358.7316,74.9741,285.1422,9.1929e-05,1.175e-05,0.0,0 STARLINK-4525,1 53401U 22097P   24105.88443673  .00001175  00000-0  91929-4 0  9996,2 53401  53.2201 358.7316 0001543  74.9741 285.1422 15.08842967 93282,6917.871,95.437,540.804,538.669,0.0
53401.0,STARLINK-4525,PAYLOAD,2024-04-15 01:59:44,15.0884895,0.000151,53.2191,357.8425,77.4743,282.6418,0.00018305,2.627e-05,0.0,0 STARLINK-4525,1 53401U 22097P   24106.08315370  .00002627  00000-0  18305-3 0  9990,2 53401  53.2191 357.8425 0001510  77.4743 282.6418 15.08848950 93808,6917.853,95.437,540.763,538.673,0.0
53401.0,STARLINK-4525,PAYLOAD,2024-04-15 21:04:22,15.08840505,0.0001684,53.2188,354.2766,64.4609,295.6557,0.00016314,2.309e-05,0.0,0 STARLINK-4525,1 53401U 22097P   24106.87803827  .00002309  00000-0  16314-3 0  9991,2 53401  53.2188 354.2766 0001684  64.4609 295.6557 15.08840505 93921,6917.879,95.438,540.909,538.579,0.0
53401.0,STARLINK-4525,PAYLOAD,2024-04-16 01:50:30,15.08853504,0.0001532,53.2195,353.3765,99.1811,260.9355,0.00010092,1.319e-05,0.0,0 STARLINK-4525,1 53401U 22097P   24107.07674712  .00001319  00000-0  10092-3 0  9990,2 53401  53.2195 353.3765 0001532  99.1811 260.9355 15.08853504 93463,6917.839,95.437,540.764,538.644,0.0
